{"fetched_at":"2026-07-13T07:47:52.862Z","source":"https://celestrak.org/NORAD/elements/gp.php?GROUP=kuiper&FORMAT=JSON","constellation":"kuiper","records":[{"OBJECT_NAME":"KUIPER-00191","OBJECT_ID":"2025-301L","EPOCH":"2026-07-12T11:30:57.495168","CLASSIFICATION_TYPE":"U","MEAN_MOTION":14.79929301,"ECCENTRICITY":0.00010978,"INCLINATION":51.8931,"RA_OF_ASC_NODE":241.3219,"ARG_OF_PERICENTER":331.1279,"MEAN_ANOMALY":28.9623,"EPHEMERIS_TYPE":0,"NORAD_CAT_ID":67143,"ELEMENT_SET_NO":999,"REV_AT_EPOCH":3213,"BSTAR":0.00057257756,"MEAN_MOTION_DOT":0.00004146,"MEAN_MOTION_DDOT":0},{"OBJECT_NAME":"KUIPER-00196","OBJECT_ID":"2025-301M","EPOCH":"2026-07-12T11:32:40.605792","CLASSIFICATION_TYPE":"U","MEAN_MOTION":14.76344285,"ECCENTRICITY":0.00011113,"INCLINATION":51.8976,"RA_OF_ASC_NODE":197.6355,"ARG_OF_PERICENTER":343.3192,"MEAN_ANOMALY":16.7732,"EPHEMERIS_TYPE":0,"NORAD_CAT_ID":67144,"ELEMENT_SET_NO":999,"REV_AT_EPOCH":3271,"BSTAR":0.00016806783,"MEAN_MOTION_DOT":0.00000963,"MEAN_MOTION_DDOT":0},{"OBJECT_NAME":"KUIPER-00204","OBJECT_ID":"2025-301N","EPOCH":"2026-07-12T11:25:03.904896","CLASSIFICATION_TYPE":"U","MEAN_MOTION":14.79925679,"ECCENTRICITY":0.00004106,"INCLINATION":51.9005,"RA_OF_ASC_NODE":213.8298,"ARG_OF_PERICENTER":18.8431,"MEAN_ANOMALY":341.2547,"EPHEMERIS_TYPE":0,"NORAD_CAT_ID":67145,"ELEMENT_SET_NO":999,"REV_AT_EPOCH":3260,"BSTAR":0.0001836675,"MEAN_MOTION_DOT":0.00001179,"MEAN_MOTION_DDOT":0},{"OBJECT_NAME":"KUIPER-00210","OBJECT_ID":"2025-301P","EPOCH":"2026-07-12T12:19:37.041024","CLASSIFICATION_TYPE":"U","MEAN_MOTION":14.79930565,"ECCENTRICITY":0.00004806,"INCLINATION":51.8991,"RA_OF_ASC_NODE":241.1304,"ARG_OF_PERICENTER":91.2059,"MEAN_ANOMALY":268.8959,"EPHEMERIS_TYPE":0,"NORAD_CAT_ID":67146,"ELEMENT_SET_NO":999,"REV_AT_EPOCH":3228,"BSTAR":0.00018270406,"MEAN_MOTION_DOT":0.00001172,"MEAN_MOTION_DDOT":0},{"OBJECT_NAME":"KUIPER-00221","OBJECT_ID":"2025-301Q","EPOCH":"2026-07-12T12:56:33.925920","CLASSIFICATION_TYPE":"U","MEAN_MOTION":14.79931594,"ECCENTRICITY":0.00004305,"INCLINATION":51.9013,"RA_OF_ASC_NODE":248.5425,"ARG_OF_PERICENTER":73.9883,"MEAN_ANOMALY":286.1127,"EPHEMERIS_TYPE":0,"NORAD_CAT_ID":67147,"ELEMENT_SET_NO":999,"REV_AT_EPOCH":3201,"BSTAR":0.000043048793,"MEAN_MOTION_DOT":0.00000107,"MEAN_MOTION_DDOT":0},{"OBJECT_NAME":"KUIPER-00232","OBJECT_ID":"2025-301R","EPOCH":"2026-07-11T15:27:05.335200","CLASSIFICATION_TYPE":"U","MEAN_MOTION":14.79937027,"ECCENTRICITY":0.00002735,"INCLINATION":51.8983,"RA_OF_ASC_NODE":237.5255,"ARG_OF_PERICENTER":80.5593,"MEAN_ANOMALY":279.54,"EPHEMERIS_TYPE":0,"NORAD_CAT_ID":67148,"ELEMENT_SET_NO":999,"REV_AT_EPOCH":3208,"BSTAR":0.00020634754,"MEAN_MOTION_DOT":0.00001352,"MEAN_MOTION_DDOT":0},{"OBJECT_NAME":"KUIPER-00241","OBJECT_ID":"2025-301S","EPOCH":"2026-07-12T03:20:50.213184","CLASSIFICATION_TYPE":"U","MEAN_MOTION":14.79933129,"ECCENTRICITY":0.00008189,"INCLINATION":51.9025,"RA_OF_ASC_NODE":245.3315,"ARG_OF_PERICENTER":82.4815,"MEAN_ANOMALY":277.6241,"EPHEMERIS_TYPE":0,"NORAD_CAT_ID":67149,"ELEMENT_SET_NO":999,"REV_AT_EPOCH":3235,"BSTAR":0.00015280591,"MEAN_MOTION_DOT":0.00000944,"MEAN_MOTION_DDOT":0},{"OBJECT_NAME":"KUIPER-00245","OBJECT_ID":"2025-301T","EPOCH":"2026-07-12T12:52:40.559520","CLASSIFICATION_TYPE":"U","MEAN_MOTION":14.79918306,"ECCENTRICITY":0.00004666,"INCLINATION":51.903,"RA_OF_ASC_NODE":251.0883,"ARG_OF_PERICENTER":87.9074,"MEAN_ANOMALY":272.1941,"EPHEMERIS_TYPE":0,"NORAD_CAT_ID":67150,"ELEMENT_SET_NO":999,"REV_AT_EPOCH":3197,"BSTAR":0.00021631358,"MEAN_MOTION_DOT":0.00001428,"MEAN_MOTION_DDOT":0},{"OBJECT_NAME":"KUIPER-00246","OBJECT_ID":"2025-301U","EPOCH":"2026-07-12T14:04:37.445664","CLASSIFICATION_TYPE":"U","MEAN_MOTION":14.79930649,"ECCENTRICITY":0.0000537,"INCLINATION":51.8995,"RA_OF_ASC_NODE":235.8187,"ARG_OF_PERICENTER":99.9976,"MEAN_ANOMALY":260.1047,"EPHEMERIS_TYPE":0,"NORAD_CAT_ID":67151,"ELEMENT_SET_NO":999,"REV_AT_EPOCH":3221,"BSTAR":0.00018458,"MEAN_MOTION_DOT":0.00001186,"MEAN_MOTION_DDOT":0},{"OBJECT_NAME":"KUIPER-00247","OBJECT_ID":"2025-301V","EPOCH":"2026-07-12T11:05:40.218720","CLASSIFICATION_TYPE":"U","MEAN_MOTION":14.79925626,"ECCENTRICITY":0.00004837,"INCLINATION":51.8953,"RA_OF_ASC_NODE":226.3406,"ARG_OF_PERICENTER":90.8897,"MEAN_ANOMALY":269.2121,"EPHEMERIS_TYPE":0,"NORAD_CAT_ID":67152,"ELEMENT_SET_NO":999,"REV_AT_EPOCH":3231,"BSTAR":0.0001851686,"MEAN_MOTION_DOT":0.00001191,"MEAN_MOTION_DDOT":0},{"OBJECT_NAME":"KUIPER-00248","OBJECT_ID":"2025-301W","EPOCH":"2026-07-12T09:55:31.215936","CLASSIFICATION_TYPE":"U","MEAN_MOTION":14.79984947,"ECCENTRICITY":0.00008142,"INCLINATION":51.8967,"RA_OF_ASC_NODE":209.1835,"ARG_OF_PERICENTER":73.8732,"MEAN_ANOMALY":286.232,"EPHEMERIS_TYPE":0,"NORAD_CAT_ID":67153,"ELEMENT_SET_NO":999,"REV_AT_EPOCH":3271,"BSTAR":0.00065144844,"MEAN_MOTION_DOT":0.00004755,"MEAN_MOTION_DDOT":0},{"OBJECT_NAME":"KUIPER-00249","OBJECT_ID":"2025-301X","EPOCH":"2026-07-12T11:09:32.508576","CLASSIFICATION_TYPE":"U","MEAN_MOTION":14.79935457,"ECCENTRICITY":0.00003877,"INCLINATION":51.8988,"RA_OF_ASC_NODE":223.8866,"ARG_OF_PERICENTER":78.7043,"MEAN_ANOMALY":281.3963,"EPHEMERIS_TYPE":0,"NORAD_CAT_ID":67154,"ELEMENT_SET_NO":999,"REV_AT_EPOCH":3234,"BSTAR":0.00015936579,"MEAN_MOTION_DOT":0.00000994,"MEAN_MOTION_DDOT":0},{"OBJECT_NAME":"KUIPER-00250","OBJECT_ID":"2025-301Y","EPOCH":"2026-07-12T03:28:37.292448","CLASSIFICATION_TYPE":"U","MEAN_MOTION":14.79930902,"ECCENTRICITY":0.0000193,"INCLINATION":51.9002,"RA_OF_ASC_NODE":240.2571,"ARG_OF_PERICENTER":16.0291,"MEAN_ANOMALY":344.0678,"EPHEMERIS_TYPE":0,"NORAD_CAT_ID":67155,"ELEMENT_SET_NO":999,"REV_AT_EPOCH":3212,"BSTAR":0.00009540771,"MEAN_MOTION_DOT":0.00000506,"MEAN_MOTION_DDOT":0},{"OBJECT_NAME":"KUIPER-00251","OBJECT_ID":"2025-301Z","EPOCH":"2026-07-12T11:54:18.861696","CLASSIFICATION_TYPE":"U","MEAN_MOTION":14.79925223,"ECCENTRICITY":0.00003994,"INCLINATION":51.8998,"RA_OF_ASC_NODE":226.2708,"ARG_OF_PERICENTER":52.2406,"MEAN_ANOMALY":307.8593,"EPHEMERIS_TYPE":0,"NORAD_CAT_ID":67156,"ELEMENT_SET_NO":999,"REV_AT_EPOCH":3250,"BSTAR":0.00016652856,"MEAN_MOTION_DOT":0.00001048,"MEAN_MOTION_DDOT":0},{"OBJECT_NAME":"KUIPER-00252","OBJECT_ID":"2025-301AA","EPOCH":"2026-07-12T10:13:10.384032","CLASSIFICATION_TYPE":"U","MEAN_MOTION":14.79926164,"ECCENTRICITY":0.00005114,"INCLINATION":51.8987,"RA_OF_ASC_NODE":229.032,"ARG_OF_PERICENTER":95.0951,"MEAN_ANOMALY":265.007,"EPHEMERIS_TYPE":0,"NORAD_CAT_ID":67157,"ELEMENT_SET_NO":999,"REV_AT_EPOCH":3227,"BSTAR":0.000093583702,"MEAN_MOTION_DOT":0.00000492,"MEAN_MOTION_DDOT":0},{"OBJECT_NAME":"KUIPER-00261","OBJECT_ID":"2025-301AB","EPOCH":"2026-07-12T04:17:17.144160","CLASSIFICATION_TYPE":"U","MEAN_MOTION":14.79933035,"ECCENTRICITY":0.00004732,"INCLINATION":51.9014,"RA_OF_ASC_NODE":240.178,"ARG_OF_PERICENTER":96.2962,"MEAN_ANOMALY":263.8054,"EPHEMERIS_TYPE":0,"NORAD_CAT_ID":67158,"ELEMENT_SET_NO":999,"REV_AT_EPOCH":3209,"BSTAR":0.00019081674,"MEAN_MOTION_DOT":0.00001234,"MEAN_MOTION_DDOT":0}]}
