KUIPER-00191            
1 67143U 25301L   26193.47983212  .00004146  00000+0  57258-3 0  9993
2 67143  51.8931 241.3219 0001097 331.1279  28.9623 14.79929301 32139
KUIPER-00196            
1 67144U 25301M   26193.48102553  .00000963  00000+0  16807-3 0  9994
2 67144  51.8976 197.6355 0001111 343.3192  16.7732 14.76344285 32718
KUIPER-00204            
1 67145U 25301N   26193.47573964  .00001179  00000+0  18367-3 0  9995
2 67145  51.9005 213.8298 0000410  18.8431 341.2547 14.79925679 32604
KUIPER-00210            
1 67146U 25301P   26193.51362316  .00001172  00000+0  18270-3 0  9994
2 67146  51.8991 241.1304 0000480  91.2059 268.8959 14.79930565 32283
KUIPER-00221            
1 67147U 25301Q   26193.53928155  .00000107  00000+0  43049-4 0  9996
2 67147  51.9013 248.5425 0000430  73.9883 286.1127 14.79931594 32016
KUIPER-00232            
1 67148U 25301R   26192.64381175  .00001352  00000+0  20635-3 0  9991
2 67148  51.8983 237.5255 0000273  80.5593 279.5400 14.79937027 32082
KUIPER-00241            
1 67149U 25301S   26193.13947006  .00000944  00000+0  15281-3 0  9995
2 67149  51.9025 245.3315 0000818  82.4815 277.6241 14.79933129 32359
KUIPER-00245            
1 67150U 25301T   26193.53658055  .00001428  00000+0  21631-3 0  9998
2 67150  51.9030 251.0883 0000466  87.9074 272.1941 14.79918306 31971
KUIPER-00246            
1 67151U 25301U   26193.58654451  .00001186  00000+0  18458-3 0  9994
2 67151  51.8995 235.8187 0000537  99.9976 260.1047 14.79930649 32217
KUIPER-00247            
1 67152U 25301V   26193.46227105  .00001191  00000+0  18517-3 0  9996
2 67152  51.8953 226.3406 0000483  90.8897 269.2121 14.79925626 32316
KUIPER-00248            
1 67153U 25301W   26193.41355574  .00004755  00000+0  65145-3 0  9992
2 67153  51.8967 209.1835 0000814  73.8732 286.2320 14.79984947 32719
KUIPER-00249            
1 67154U 25301X   26193.46495959  .00000994  00000+0  15937-3 0  9995
2 67154  51.8988 223.8866 0000387  78.7043 281.3963 14.79935457 32344
KUIPER-00250            
1 67155U 25301Y   26193.14487607  .00000506  00000+0  95408-4 0  9993
2 67155  51.9002 240.2571 0000193  16.0291 344.0678 14.79930902 32120
KUIPER-00251            
1 67156U 25301Z   26193.49605164  .00001048  00000+0  16653-3 0  9998
2 67156  51.8998 226.2708 0000399  52.2406 307.8593 14.79925223 32503
KUIPER-00252            
1 67157U 25301AA  26193.42581463  .00000492  00000+0  93584-4 0  9998
2 67157  51.8987 229.0320 0000511  95.0951 265.0070 14.79926164 32273
KUIPER-00261            
1 67158U 25301AB  26193.17867065  .00001234  00000+0  19082-3 0  9991
2 67158  51.9014 240.1780 0000473  96.2962 263.8054 14.79933035 32095
